{"type": "FeatureCollection", "features": [ {"type": "Feature", "properties": {"norad_id": 33980, "name": "COSMOS 2251 DEB", "group": "cosmos-2251-debris", "lat": -3.7637271453944217, "lon": -132.9622810655977, "alt_km": 680.603663650285, "timestamp": "2025-12-19T18:58:41.979229+00:00", "meta": {"OBJECT_NAME": "COSMOS 2251 DEB", "OBJECT_ID": "1993-036FP", "EPOCH": "2025-12-19T05:13:47.872416", "MEAN_MOTION": 14.58686728, "ECCENTRICITY": 0.00283093, "INCLINATION": 74.0212, "RA_OF_ASC_NODE": 47.049, "ARG_OF_PERICENTER": 191.0844, "MEAN_ANOMALY": 225.7965, "EPHEMERIS_TYPE": 0, "CLASSIFICATION_TYPE": "U", "NORAD_CAT_ID": 33980, "ELEMENT_SET_NO": 999, "REV_AT_EPOCH": 88889, "BSTAR": 0.00041792484, "MEAN_MOTION_DOT": 1.93e-05, "MEAN_MOTION_DDOT": 0}, "tle": {"line1": "1 33980U 93036FP  25353.21791519  .00001930  00000+0  41792-3 0  9995", "line2": "2 33980  74.0212  47.0490 0028309 191.0844 225.7965 14.58686728888896"}}, "geometry": {"type": "Point", "coordinates": [-132.9622810655977, -3.7637271453944217]}}, {"type": "Feature", "properties": {"norad_id": 33982, "name": "COSMOS 2251 DEB", "group": "cosmos-2251-debris", "lat": 70.41540863142863, "lon": 39.89710882742194, "alt_km": 650.4380983051869, "timestamp": "2025-12-19T18:58:41.979239+00:00", "meta": {"OBJECT_NAME": "COSMOS 2251 DEB", "OBJECT_ID": "1993-036FR", "EPOCH": "2025-12-18T10:25:15.223872", "MEAN_MOTION": 14.60234804, "ECCENTRICITY": 0.00752449, "INCLINATION": 74.0705, "RA_OF_ASC_NODE": 349.0869, "ARG_OF_PERICENTER": 31.9425, "MEAN_ANOMALY": 117.5988, "EPHEMERIS_TYPE": 0, "CLASSIFICATION_TYPE": "U", "NORAD_CAT_ID": 33982, "ELEMENT_SET_NO": 999, "REV_AT_EPOCH": 89242, "BSTAR": 0.00037606811, "MEAN_MOTION_DOT": 1.857e-05, "MEAN_MOTION_DDOT": 0}, "tle": {"line1": "1 33982U 93036FR  25352.43420398  .00001857  00000+0  37607-3 0  9992", "line2": "2 33982  74.0705 349.0869 0075244  31.9425 117.5988 14.60234804892421"}}, "geometry": {"type": "Point", "coordinates": [39.89710882742194, 70.41540863142863]}}, {"type": "Feature", "properties": {"norad_id": 33983, "name": "COSMOS 2251 DEB", "group": "cosmos-2251-debris", "lat": 49.563591654049, "lon": -65.80765507733692, "alt_km": 723.1981546459438, "timestamp": "2025-12-19T18:58:41.979250+00:00", "meta": {"OBJECT_NAME": "COSMOS 2251 DEB", "OBJECT_ID": "1993-036FS", "EPOCH": "2025-12-18T21:26:18.394080", "MEAN_MOTION": 14.5069475, "ECCENTRICITY": 0.00212143, "INCLINATION": 74.0492, "RA_OF_ASC_NODE": 135.4878, "ARG_OF_PERICENTER": 237.7375, "MEAN_ANOMALY": 244.8271, "EPHEMERIS_TYPE": 0, "CLASSIFICATION_TYPE": "U", "NORAD_CAT_ID": 33983, "ELEMENT_SET_NO": 999, "REV_AT_EPOCH": 88718, "BSTAR": 0.00041354395, "MEAN_MOTION_DOT": 1.602e-05, "MEAN_MOTION_DDOT": 0}, "tle": {"line1": "1 33983U 93036FS  25352.89326845  .00001602  00000+0  41354-3 0  9997", "line2": "2 33983  74.0492 135.4878 0021214 237.7375 244.8271 14.50694750887185"}}, "geometry": {"type": "Point", "coordinates": [-65.80765507733692, 49.563591654049]}}, {"type": "Feature", "properties": {"norad_id": 33984, "name": "COSMOS 2251 DEB", "group": "cosmos-2251-debris", "lat": -73.83389948804812, "lon": -108.10358167457417, "alt_km": 682.9764609331023, "timestamp": "2025-12-19T18:58:41.979259+00:00", "meta": {"OBJECT_NAME": "COSMOS 2251 DEB", "OBJECT_ID": "1993-036FT", "EPOCH": "2025-12-18T23:59:04.772256", "MEAN_MOTION": 14.66414895, "ECCENTRICITY": 0.00227517, "INCLINATION": 74.0089, "RA_OF_ASC_NODE": 335.0135, "ARG_OF_PERICENTER": 171.3355, "MEAN_ANOMALY": 244.5762, "EPHEMERIS_TYPE": 0, "CLASSIFICATION_TYPE": "U", "NORAD_CAT_ID": 33984, "ELEMENT_SET_NO": 999, "REV_AT_EPOCH": 89158, "BSTAR": 0.00061279688, "MEAN_MOTION_DOT": 3.372e-05, "MEAN_MOTION_DDOT": 0}, "tle": {"line1": "1 33984U 93036FT  25352.99936079  .00003372  00000+0  61280-3 0  9991", "line2": "2 33984  74.0089 335.0135 0022751 171.3355 244.5762 14.66414895891588"}}, "geometry": {"type": "Point", "coordinates": [-108.10358167457417, -73.83389948804812]}}, {"type": "Feature", "properties": {"norad_id": 33986, "name": "COSMOS 2251 DEB", "group": "cosmos-2251-debris", "lat": 49.1321264259697, "lon": -51.106112000359886, "alt_km": 724.7468495199173, "timestamp": "2025-12-19T18:58:41.979269+00:00", "meta": {"OBJECT_NAME": "COSMOS 2251 DEB", "OBJECT_ID": "1993-036FV", "EPOCH": "2025-12-18T21:25:07.387968", "MEAN_MOTION": 14.43233693, "ECCENTRICITY": 0.00407833, "INCLINATION": 74.0369, "RA_OF_ASC_NODE": 291.2436, "ARG_OF_PERICENTER": 2.5986, "MEAN_ANOMALY": 63.5229, "EPHEMERIS_TYPE": 0, "CLASSIFICATION_TYPE": "U", "NORAD_CAT_ID": 33986, "ELEMENT_SET_NO": 999, "REV_AT_EPOCH": 88117, "BSTAR": 0.00054447356, "MEAN_MOTION_DOT": 1.824e-05, "MEAN_MOTION_DDOT": 0}, "tle": {"line1": "1 33986U 93036FV  25352.89244662  .00001824  00000+0  54447-3 0  9999", "line2": "2 33986  74.0369 291.2436 0040783   2.5986  63.5229 14.43233693881179"}}, "geometry": {"type": "Point", "coordinates": [-51.106112000359886, 49.1321264259697]}}, {"type": "Feature", "properties": {"norad_id": 33990, "name": "COSMOS 2251 DEB", "group": "cosmos-2251-debris", "lat": -68.61652615247301, "lon": 142.08374783725162, "alt_km": 835.4585602752395, "timestamp": "2025-12-19T18:58:41.979280+00:00", "meta": {"OBJECT_NAME": "COSMOS 2251 DEB", "OBJECT_ID": "1993-036FZ", "EPOCH": "2025-12-19T06:01:39.088704", "MEAN_MOTION": 13.50004912, "ECCENTRICITY": 0.04074427, "INCLINATION": 73.9284, "RA_OF_ASC_NODE": 275.5406, "ARG_OF_PERICENTER": 294.6793, "MEAN_ANOMALY": 222.2317, "EPHEMERIS_TYPE": 0, "CLASSIFICATION_TYPE": "U", "NORAD_CAT_ID": 33990, "ELEMENT_SET_NO": 999, "REV_AT_EPOCH": 82817, "BSTAR": 0.00070111822, "MEAN_MOTION_DOT": 7.23e-06, "MEAN_MOTION_DDOT": 0}, "tle": {"line1": "1 33990U 93036FZ  25353.25114686  .00000723  00000+0  70112-3 0  9991", "line2": "2 33990  73.9284 275.5406 0407442 294.6793 222.2317 13.50004912828179"}}, "geometry": {"type": "Point", "coordinates": [142.08374783725162, -68.61652615247301]}}, {"type": "Feature", "properties": {"norad_id": 33992, "name": "COSMOS 2251 DEB", "group": "cosmos-2251-debris", "lat": 46.31852599409233, "lon": 126.6788470031655, "alt_km": 645.6984357988458, "timestamp": "2025-12-19T18:58:41.979290+00:00", "meta": {"OBJECT_NAME": "COSMOS 2251 DEB", "OBJECT_ID": "1993-036GB", "EPOCH": "2025-12-19T07:13:37.079904", "MEAN_MOTION": 14.66262903, "ECCENTRICITY": 0.00517127, "INCLINATION": 74.0237, "RA_OF_ASC_NODE": 325.0797, "ARG_OF_PERICENTER": 80.92, "MEAN_ANOMALY": 346.2364, "EPHEMERIS_TYPE": 0, "CLASSIFICATION_TYPE": "U", "NORAD_CAT_ID": 33992, "ELEMENT_SET_NO": 999, "REV_AT_EPOCH": 89221, "BSTAR": 0.00054103586, "MEAN_MOTION_DOT": 3.011e-05, "MEAN_MOTION_DDOT": 0}, "tle": {"line1": "1 33992U 93036GB  25353.30112361  .00003011  00000+0  54104-3 0  9993", "line2": "2 33992  74.0237 325.0797 0051712  80.9200 346.2364 14.66262903892218"}}, "geometry": {"type": "Point", "coordinates": [126.6788470031655, 46.31852599409233]}}, {"type": "Feature", "properties": {"norad_id": 33994, "name": "COSMOS 2251 DEB", "group": "cosmos-2251-debris", "lat": 48.60852524399351, "lon": -21.583560675832096, "alt_km": 766.7356643331423, "timestamp": "2025-12-19T18:58:41.979299+00:00", "meta": {"OBJECT_NAME": "COSMOS 2251 DEB", "OBJECT_ID": "1993-036GD", "EPOCH": "2025-12-18T23:05:51.019584", "MEAN_MOTION": 14.41218323, "ECCENTRICITY": 0.00238282, "INCLINATION": 74.0415, "RA_OF_ASC_NODE": 178.8944, "ARG_OF_PERICENTER": 312.1629, "MEAN_ANOMALY": 200.3184, "EPHEMERIS_TYPE": 0, "CLASSIFICATION_TYPE": "U", "NORAD_CAT_ID": 33994, "ELEMENT_SET_NO": 999, "REV_AT_EPOCH": 88509, "BSTAR": 7.3560078e-05, "MEAN_MOTION_DOT": 2.12e-06, "MEAN_MOTION_DDOT": 0}, "tle": {"line1": "1 33994U 93036GD  25352.96239606  .00000212  00000+0  73560-4 0  9996", "line2": "2 33994  74.0415 178.8944 0023828 312.1629 200.3184 14.41218323885096"}}, "geometry": {"type": "Point", "coordinates": [-21.583560675832096, 48.60852524399351]}}, {"type": "Feature", "properties": {"norad_id": 33995, "name": "COSMOS 2251 DEB", "group": "cosmos-2251-debris", "lat": 39.04984861389681, "lon": 119.85735285830533, "alt_km": 763.2085999937135, "timestamp": "2025-12-19T18:58:41.979309+00:00", "meta": {"OBJECT_NAME": "COSMOS 2251 DEB", "OBJECT_ID": "1993-036GE", "EPOCH": "2025-12-18T14:20:25.529280", "MEAN_MOTION": 14.34801448, "ECCENTRICITY": 0.00597099, "INCLINATION": 74.0615, "RA_OF_ASC_NODE": 108.6351, "ARG_OF_PERICENTER": 121.4202, "MEAN_ANOMALY": 239.2809, "EPHEMERIS_TYPE": 0, "CLASSIFICATION_TYPE": "U", "NORAD_CAT_ID": 33995, "ELEMENT_SET_NO": 999, "REV_AT_EPOCH": 87603, "BSTAR": 0.00066324304, "MEAN_MOTION_DOT": 1.895e-05, "MEAN_MOTION_DDOT": 0}, "tle": {"line1": "1 33995U 93036GE  25352.59751770  .00001895  00000+0  66324-3 0  9994", "line2": "2 33995  74.0615 108.6351 0059709 121.4202 239.2809 14.34801448876034"}}, "geometry": {"type": "Point", "coordinates": [119.85735285830533, 39.04984861389681]}}, {"type": "Feature", "properties": {"norad_id": 33999, "name": "COSMOS 2251 DEB", "group": "cosmos-2251-debris", "lat": -6.928577252271629, "lon": -145.29516888918943, "alt_km": 635.9859539140234, "timestamp": "2025-12-19T18:58:41.979319+00:00", "meta": {"OBJECT_NAME": "COSMOS 2251 DEB", "OBJECT_ID": "1993-036GJ", "EPOCH": "2025-12-19T01:12:27.249696", "MEAN_MOTION": 14.83485098, "ECCENTRICITY": 0.00444173, "INCLINATION": 73.9181, "RA_OF_ASC_NODE": 218.1903, "ARG_OF_PERICENTER": 111.8803, "MEAN_ANOMALY": 248.7107, "EPHEMERIS_TYPE": 0, "CLASSIFICATION_TYPE": "U", "NORAD_CAT_ID": 33999, "ELEMENT_SET_NO": 999, "REV_AT_EPOCH": 89344, "BSTAR": 0.00093991228, "MEAN_MOTION_DOT": 7.837e-05, "MEAN_MOTION_DDOT": 0}, "tle": {"line1": "1 33999U 93036GJ  25353.05031539  .00007837  00000+0  93991-3 0  9996", "line2": "2 33999  73.9181 218.1903 0044417 111.8803 248.7107 14.83485098893447"}}, "geometry": {"type": "Point", "coordinates": [-145.29516888918943, -6.928577252271629]}}]}